{
  "type": "FeatureCollection",
  "features": [
    {
      "type": "Feature",
      "properties": {
        "norad_id": 32113,
        "name": "FENGYUN 1C DEB",
        "group": "fengyun-1c-debris",
        "lat": 45.56079829591126,
        "lon": -135.50303659692497,
        "alt_km": 805.7089872184315,
        "timestamp": "2025-12-26T16:33:55.856186+00:00",
        "meta_object_name": "FENGYUN 1C DEB",
        "meta_object_id": "1999-025CRF",
        "meta_epoch": "2025-12-22T20:39:08.544384",
        "meta_mean_motion": 13.9458115,
        "meta_eccentricity": 0.0238461,
        "meta_inclination": 99.0255,
        "meta_ra_of_asc_node": 31.4218,
        "meta_arg_of_pericenter": 198.943,
        "meta_mean_anomaly": 160.2746,
        "meta_ephemeris_type": 0,
        "meta_classification_type": "U",
        "meta_norad_cat_id": 32113,
        "meta_element_set_no": 999,
        "meta_rev_at_epoch": 63027,
        "meta_bstar": 0.0006327,
        "meta_mean_motion_dot": 1.027e-05,
        "meta_mean_motion_ddot": 0,
        "tle_line1": "1 32113U 99025CRF 25356.86051556  .00001027  00000+0  63270-3 0  9992",
        "tle_line2": "2 32113  99.0255  31.4218 0238461 198.9430 160.2746 13.94581150630270"
      },
      "geometry": {
        "type": "Point",
        "coordinates": [
          -135.50303659692497,
          45.56079829591126
        ]
      }
    },
    {
      "type": "Feature",
      "properties": {
        "norad_id": 32114,
        "name": "FENGYUN 1C DEB",
        "group": "fengyun-1c-debris",
        "lat": 79.6499531174155,
        "lon": 47.370322372545324,
        "alt_km": 654.6148108753423,
        "timestamp": "2025-12-26T16:33:55.856195+00:00",
        "meta_object_name": "FENGYUN 1C DEB",
        "meta_object_id": "1999-025CRG",
        "meta_epoch": "2025-12-06T13:19:21.641376",
        "meta_mean_motion": 14.76489439,
        "meta_eccentricity": 0.00447682,
        "meta_inclination": 99.9287,
        "meta_ra_of_asc_node": 96.1919,
        "meta_arg_of_pericenter": 3.5911,
        "meta_mean_anomaly": 356.5605,
        "meta_ephemeris_type": 0,
        "meta_classification_type": "U",
        "meta_norad_cat_id": 32114,
        "meta_element_set_no": 999,
        "meta_rev_at_epoch": 65638,
        "meta_bstar": 0.0040574802,
        "meta_mean_motion_dot": 0.0002877,
        "meta_mean_motion_ddot": 0,
        "tle_line1": "1 32114U 99025CRG 25340.55511159  .00028770  00000+0  40575-2 0  9998",
        "tle_line2": "2 32114  99.9287  96.1919 0044768   3.5911 356.5605 14.76489439656383"
      },
      "geometry": {
        "type": "Point",
        "coordinates": [
          47.370322372545324,
          79.6499531174155
        ]
      }
    },
    {
      "type": "Feature",
      "properties": {
        "norad_id": 32117,
        "name": "FENGYUN 1C DEB",
        "group": "fengyun-1c-debris",
        "lat": 65.05159581558644,
        "lon": -115.25209260415046,
        "alt_km": 796.3040943697997,
        "timestamp": "2025-12-26T16:33:55.856206+00:00",
        "meta_object_name": "FENGYUN 1C DEB",
        "meta_object_id": "1999-025CRK",
        "meta_epoch": "2025-12-24T23:33:52.526880",
        "meta_mean_motion": 14.23993924,
        "meta_eccentricity": 0.00267877,
        "meta_inclination": 98.6105,
        "meta_ra_of_asc_node": 44.0668,
        "meta_arg_of_pericenter": 56.7289,
        "meta_mean_anomaly": 303.6451,
        "meta_ephemeris_type": 0,
        "meta_classification_type": "U",
        "meta_norad_cat_id": 32117,
        "meta_element_set_no": 999,
        "meta_rev_at_epoch": 94971,
        "meta_bstar": 0.00099983564,
        "meta_mean_motion_dot": 2.261e-05,
        "meta_mean_motion_ddot": 0,
        "tle_line1": "1 32117U 99025CRK 25358.98185795  .00002261  00000+0  99984-3 0  9996",
        "tle_line2": "2 32117  98.6105  44.0668 0026787  56.7289 303.6451 14.23993924949718"
      },
      "geometry": {
        "type": "Point",
        "coordinates": [
          -115.25209260415046,
          65.05159581558644
        ]
      }
    },
    {
      "type": "Feature",
      "properties": {
        "norad_id": 32119,
        "name": "FENGYUN 1C DEB",
        "group": "fengyun-1c-debris",
        "lat": 20.53792295754087,
        "lon": 48.13411201861522,
        "alt_km": 934.2576879467424,
        "timestamp": "2025-12-26T16:33:55.856216+00:00",
        "meta_object_name": "FENGYUN 1C DEB",
        "meta_object_id": "1999-025CRM",
        "meta_epoch": "2025-12-21T09:08:50.463168",
        "meta_mean_motion": 14.02839478,
        "meta_eccentricity": 0.00860891,
        "meta_inclination": 99.8866,
        "meta_ra_of_asc_node": 218.6288,
        "meta_arg_of_pericenter": 29.2524,
        "meta_mean_anomaly": 331.342,
        "meta_ephemeris_type": 0,
        "meta_classification_type": "U",
        "meta_norad_cat_id": 32119,
        "meta_element_set_no": 999,
        "meta_rev_at_epoch": 93849,
        "meta_bstar": 0.00056371909,
        "meta_mean_motion_dot": 8.5e-06,
        "meta_mean_motion_ddot": 0,
        "tle_line1": "1 32119U 99025CRM 25355.38113962  .00000850  00000+0  56372-3 0  9992",
        "tle_line2": "2 32119  99.8866 218.6288 0086089  29.2524 331.3420 14.02839478938499"
      },
      "geometry": {
        "type": "Point",
        "coordinates": [
          48.13411201861522,
          20.53792295754087
        ]
      }
    },
    {
      "type": "Feature",
      "properties": {
        "norad_id": 32123,
        "name": "FENGYUN 1C DEB",
        "group": "fengyun-1c-debris",
        "lat": 49.39994812228664,
        "lon": 0.21636344119381853,
        "alt_km": 739.8721822134594,
        "timestamp": "2025-12-26T16:33:55.856224+00:00",
        "meta_object_name": "FENGYUN 1C DEB",
        "meta_object_id": "1999-025CRR",
        "meta_epoch": "2025-12-25T10:31:59.270016",
        "meta_mean_motion": 14.61506099,
        "meta_eccentricity": 0.0159504,
        "meta_inclination": 98.9409,
        "meta_ra_of_asc_node": 168.28,
        "meta_arg_of_pericenter": 254.1526,
        "meta_mean_anomaly": 137.0709,
        "meta_ephemeris_type": 0,
        "meta_classification_type": "U",
        "meta_norad_cat_id": 32123,
        "meta_element_set_no": 999,
        "meta_rev_at_epoch": 71560,
        "meta_bstar": 0.00034383,
        "meta_mean_motion_dot": 1.977e-05,
        "meta_mean_motion_ddot": 0,
        "tle_line1": "1 32123U 99025CRR 25359.43888044  .00001977  00000+0  34383-3 0  9996",
        "tle_line2": "2 32123  98.9409 168.2800 0159504 254.1526 137.0709 14.61506099715603"
      },
      "geometry": {
        "type": "Point",
        "coordinates": [
          0.21636344119381853,
          49.39994812228664
        ]
      }
    },
    {
      "type": "Feature",
      "properties": {
        "norad_id": 32125,
        "name": "FENGYUN 1C DEB",
        "group": "fengyun-1c-debris",
        "lat": -10.32245050336911,
        "lon": -15.758450641894736,
        "alt_km": 620.2608218008318,
        "timestamp": "2025-12-26T16:33:55.856233+00:00",
        "meta_object_name": "FENGYUN 1C DEB",
        "meta_object_id": "1999-025CRT",
        "meta_epoch": "2025-12-23T16:44:51.530496",
        "meta_mean_motion": 14.70223503,
        "meta_eccentricity": 0.01727232,
        "meta_inclination": 99.0646,
        "meta_ra_of_asc_node": 339.2508,
        "meta_arg_of_pericenter": 289.2149,
        "meta_mean_anomaly": 69.0435,
        "meta_ephemeris_type": 0,
        "meta_classification_type": "U",
        "meta_norad_cat_id": 32125,
        "meta_element_set_no": 999,
        "meta_rev_at_epoch": 70684,
        "meta_bstar": 0.0023171985,
        "meta_mean_motion_dot": 0.00017568,
        "meta_mean_motion_ddot": 0,
        "tle_line1": "1 32125U 99025CRT 25357.69781864  .00017568  00000+0  23172-2 0  9992",
        "tle_line2": "2 32125  99.0646 339.2508 0172723 289.2149  69.0435 14.70223503706845"
      },
      "geometry": {
        "type": "Point",
        "coordinates": [
          -15.758450641894736,
          -10.32245050336911
        ]
      }
    },
    {
      "type": "Feature",
      "properties": {
        "norad_id": 32126,
        "name": "FENGYUN 1C DEB",
        "group": "fengyun-1c-debris",
        "lat": -15.506095179690039,
        "lon": 53.18589619229435,
        "alt_km": 860.706559734319,
        "timestamp": "2025-12-26T16:33:55.856244+00:00",
        "meta_object_name": "FENGYUN 1C DEB",
        "meta_object_id": "1999-025CRU",
        "meta_epoch": "2025-12-14T22:11:18.681792",
        "meta_mean_motion": 13.56802944,
        "meta_eccentricity": 0.02807648,
        "meta_inclination": 99.1097,
        "meta_ra_of_asc_node": 224.8335,
        "meta_arg_of_pericenter": 249.9124,
        "meta_mean_anomaly": 107.16,
        "meta_ephemeris_type": 0,
        "meta_classification_type": "U",
        "meta_norad_cat_id": 32126,
        "meta_element_set_no": 999,
        "meta_rev_at_epoch": 61744,
        "meta_bstar": 0.001056147,
        "meta_mean_motion_dot": 9.24e-06,
        "meta_mean_motion_ddot": 0,
        "tle_line1": "1 32126U 99025CRU 25348.92452178  .00000924  00000+0  10561-2 0  9998",
        "tle_line2": "2 32126  99.1097 224.8335 0280764 249.9124 107.1600 13.56802944617445"
      },
      "geometry": {
        "type": "Point",
        "coordinates": [
          53.18589619229435,
          -15.506095179690039
        ]
      }
    }
  ]
}